IRIDIUM 126             
1 42809U 17039G   24240.81290072  .00000449  00000+0  15325-3 0  9999
2 42809  86.3916 268.7497 0002303  88.4906 271.6553 14.34220881375584
IRIDIUM 124             
1 42810U 17039H   24241.38002488  .00001224  00000+0  35810-3 0  9999
2 42810  86.4526 205.2674 0002051  85.7980 274.3455 14.43267557380239
IRIDIUM 128             
1 42811U 17039J   24240.87341236  .00000452  00000+0  15417-3 0  9993
2 42811  86.3958 300.2706 0002024  90.1640 269.9788 14.34218241375625
IRIDIUM 121             
1 42812U 17039K   24241.52961445  .00000024  00000+0  15187-5 0  9998
2 42812  86.3915 268.4728 0002222  91.8441 268.3009 14.34216730375681
IRIDIUM 133             
1 42955U 17061A   24241.18419970  .00000541  00000+0  18600-3 0  9999
2 42955  86.3960 300.2422 0002302  93.6178 266.5281 14.34219814360469
IRIDIUM 100             
1 42956U 17061B   24241.17785547  .00000555  00000+0  19098-3 0  9992
2 42956  86.3958 300.1787 0002169  92.9181 267.2263 14.34219688360486
IRIDIUM 122             
1 42957U 17061C   24240.86706893  .00000140  00000+0  43028-4 0  9996
2 42957  86.3958 300.3072 0002197  89.1172 271.0275 14.34217429360426
IRIDIUM 129             
1 42958U 17061D   24241.17151721  .00000195  00000+0  62431-4 0  9995
2 42958  86.3958 300.2400 0002525  89.5367 270.6118 14.34220730360482
